{"type": "FeatureCollection", "features": [ {"type": "Feature", "properties": {"norad_id": 41175, "name": "GSAT0208 (GALILEO 11)", "group": "galileo", "lat": -55.42899002523595, "lon": 24.778056401872085, "alt_km": 23227.44930025171, "timestamp": "2025-12-18T10:51:26.069015+00:00", "meta": {"OBJECT_NAME": "GSAT0208 (GALILEO 11)", "OBJECT_ID": "2015-079B", "EPOCH": "2025-12-12T17:24:26.771040", "MEAN_MOTION": 1.70474307, "ECCENTRICITY": 0.00018806, "INCLINATION": 55.7111, "RA_OF_ASC_NODE": 106.3784, "ARG_OF_PERICENTER": 358.3144, "MEAN_ANOMALY": 1.6545, "EPHEMERIS_TYPE": 0, "CLASSIFICATION_TYPE": "U", "NORAD_CAT_ID": 41175, "ELEMENT_SET_NO": 999, "REV_AT_EPOCH": 6201, "BSTAR": 0, "MEAN_MOTION_DOT": 4e-08, "MEAN_MOTION_DDOT": 0}, "tle": {"line1": "1 41175U 15079B   25346.72530985  .00000004  00000+0  00000+0 0  9991", "line2": "2 41175  55.7111 106.3784 0001880 358.3144   1.6545  1.70474307 62017"}}, "geometry": {"type": "Point", "coordinates": [24.778056401872085, -55.42899002523595]}}, {"type": "Feature", "properties": {"norad_id": 41549, "name": "GSAT0211 (GALILEO 14)", "group": "galileo", "lat": -15.268106127593072, "lon": 57.63335481374836, "alt_km": 23236.528406718255, "timestamp": "2025-12-18T10:51:26.069026+00:00", "meta": {"OBJECT_NAME": "GSAT0211 (GALILEO 14)", "OBJECT_ID": "2016-030A", "EPOCH": "2025-12-14T00:32:28.498848", "MEAN_MOTION": 1.70473201, "ECCENTRICITY": 0.000407, "INCLINATION": 55.1518, "RA_OF_ASC_NODE": 226.7881, "ARG_OF_PERICENTER": 16.5595, "MEAN_ANOMALY": 343.5367, "EPHEMERIS_TYPE": 0, "CLASSIFICATION_TYPE": "U", "NORAD_CAT_ID": 41549, "ELEMENT_SET_NO": 999, "REV_AT_EPOCH": 5951, "BSTAR": 0, "MEAN_MOTION_DOT": 2.8e-07, "MEAN_MOTION_DDOT": 0}, "tle": {"line1": "1 41549U 16030A   25348.02255207  .00000028  00000+0  00000+0 0  9996", "line2": "2 41549  55.1518 226.7881 0004070  16.5595 343.5367  1.70473201 59512"}}, "geometry": {"type": "Point", "coordinates": [57.63335481374836, -15.268106127593072]}}, {"type": "Feature", "properties": {"norad_id": 41550, "name": "GSAT0210 (GALILEO 13)", "group": "galileo", "lat": 32.35107319146388, "lon": -107.15600161682238, "alt_km": 23220.91431403099, "timestamp": "2025-12-18T10:51:26.069038+00:00", "meta": {"OBJECT_NAME": "GSAT0210 (GALILEO 13)", "OBJECT_ID": "2016-030B", "EPOCH": "2025-12-17T05:06:34.590240", "MEAN_MOTION": 1.70473746, "ECCENTRICITY": 9.221e-05, "INCLINATION": 55.1502, "RA_OF_ASC_NODE": 226.6984, "ARG_OF_PERICENTER": 234.8094, "MEAN_ANOMALY": 125.2822, "EPHEMERIS_TYPE": 0, "CLASSIFICATION_TYPE": "U", "NORAD_CAT_ID": 41550, "ELEMENT_SET_NO": 999, "REV_AT_EPOCH": 5956, "BSTAR": 0, "MEAN_MOTION_DOT": 5.5e-07, "MEAN_MOTION_DDOT": 0}, "tle": {"line1": "1 41550U 16030B   25351.21290035  .00000055  00000+0  00000+0 0  9991", "line2": "2 41550  55.1502 226.6984 0000922 234.8094 125.2822  1.70473746 59561"}}, "geometry": {"type": "Point", "coordinates": [-107.15600161682238, 32.35107319146388]}}, {"type": "Feature", "properties": {"norad_id": 41859, "name": "GSAT0207 (GALILEO 15)", "group": "galileo", "lat": -39.062486067045946, "lon": -39.87128848068653, "alt_km": 23227.063725345837, "timestamp": "2025-12-18T10:51:26.069049+00:00", "meta": {"OBJECT_NAME": "GSAT0207 (GALILEO 15)", "OBJECT_ID": "2016-069A", "EPOCH": "2025-12-13T09:14:27.730752", "MEAN_MOTION": 1.70474447, "ECCENTRICITY": 0.00022423, "INCLINATION": 55.3826, "RA_OF_ASC_NODE": 106.2323, "ARG_OF_PERICENTER": 321.9482, "MEAN_ANOMALY": 38.0041, "EPHEMERIS_TYPE": 0, "CLASSIFICATION_TYPE": "U", "NORAD_CAT_ID": 41859, "ELEMENT_SET_NO": 999, "REV_AT_EPOCH": 5623, "BSTAR": 0, "MEAN_MOTION_DOT": 0, "MEAN_MOTION_DDOT": 0}, "tle": {"line1": "1 41859U 16069A   25347.38504318  .00000000  00000+0  00000+0 0  9990", "line2": "2 41859  55.3826 106.2323 0002242 321.9482  38.0041  1.70474447 56234"}}, "geometry": {"type": "Point", "coordinates": [-39.87128848068653, -39.062486067045946]}}, {"type": "Feature", "properties": {"norad_id": 41860, "name": "GSAT0212 (GALILEO 16)", "group": "galileo", "lat": -32.11435726691825, "lon": 80.41722245329794, "alt_km": 23223.346948499755, "timestamp": "2025-12-18T10:51:26.069060+00:00", "meta": {"OBJECT_NAME": "GSAT0212 (GALILEO 16)", "OBJECT_ID": "2016-069B", "EPOCH": "2025-12-17T08:16:27.265728", "MEAN_MOTION": 1.70474701, "ECCENTRICITY": 0.00020752, "INCLINATION": 55.3825, "RA_OF_ASC_NODE": 106.1181, "ARG_OF_PERICENTER": 22.8873, "MEAN_ANOMALY": 337.0809, "EPHEMERIS_TYPE": 0, "CLASSIFICATION_TYPE": "U", "NORAD_CAT_ID": 41860, "ELEMENT_SET_NO": 999, "REV_AT_EPOCH": 5655, "BSTAR": 0, "MEAN_MOTION_DOT": -9e-08, "MEAN_MOTION_DDOT": 0}, "tle": {"line1": "1 41860U 16069B   25351.34476002 -.00000009  00000+0  00000+0 0  9991", "line2": "2 41860  55.3825 106.1181 0002075  22.8873 337.0809  1.70474701 56553"}}, "geometry": {"type": "Point", "coordinates": [80.41722245329794, -32.11435726691825]}}, {"type": "Feature", "properties": {"norad_id": 41861, "name": "GSAT0213 (GALILEO 17)", "group": "galileo", "lat": 55.177234304516865, "lon": -156.5428471026279, "alt_km": 23223.23292656826, "timestamp": "2025-12-18T10:51:26.069071+00:00", "meta": {"OBJECT_NAME": "GSAT0213 (GALILEO 17)", "OBJECT_ID": "2016-069C", "EPOCH": "2025-12-17T17:05:43.808640", "MEAN_MOTION": 1.70474957, "ECCENTRICITY": 0.00025722, "INCLINATION": 55.385, "RA_OF_ASC_NODE": 106.1156, "ARG_OF_PERICENTER": 282.262, "MEAN_ANOMALY": 77.6683, "EPHEMERIS_TYPE": 0, "CLASSIFICATION_TYPE": "U", "NORAD_CAT_ID": 41861, "ELEMENT_SET_NO": 999, "REV_AT_EPOCH": 5642, "BSTAR": 0, "MEAN_MOTION_DOT": -9e-08, "MEAN_MOTION_DDOT": 0}, "tle": {"line1": "1 41861U 16069C   25351.71231260 -.00000009  00000+0  00000+0 0  9998", "line2": "2 41861  55.3850 106.1156 0002572 282.2620  77.6683  1.70474957 56424"}}, "geometry": {"type": "Point", "coordinates": [-156.5428471026279, 55.177234304516865]}}, {"type": "Feature", "properties": {"norad_id": 41862, "name": "GSAT0214 (GALILEO 18)", "group": "galileo", "lat": 3.779732202550582, "lon": 108.68948410763042, "alt_km": 23220.707479128414, "timestamp": "2025-12-18T10:51:26.069083+00:00", "meta": {"OBJECT_NAME": "GSAT0214 (GALILEO 18)", "OBJECT_ID": "2016-069D", "EPOCH": "2025-12-14T22:12:36.299232", "MEAN_MOTION": 1.70474813, "ECCENTRICITY": 0.00014239, "INCLINATION": 55.3815, "RA_OF_ASC_NODE": 106.1855, "ARG_OF_PERICENTER": 290.4821, "MEAN_ANOMALY": 69.4663, "EPHEMERIS_TYPE": 0, "CLASSIFICATION_TYPE": "U", "NORAD_CAT_ID": 41862, "ELEMENT_SET_NO": 999, "REV_AT_EPOCH": 5650, "BSTAR": 0, "MEAN_MOTION_DOT": -6e-08, "MEAN_MOTION_DDOT": 0}, "tle": {"line1": "1 41862U 16069D   25348.92542013 -.00000006  00000+0  00000+0 0  9996", "line2": "2 41862  55.3815 106.1855 0001423 290.4821  69.4663  1.70474813 56507"}}, "geometry": {"type": "Point", "coordinates": [108.68948410763042, 3.779732202550582]}}, {"type": "Feature", "properties": {"norad_id": 43055, "name": "GSAT0215 (GALILEO 19)", "group": "galileo", "lat": 47.37498323573592, "lon": -84.29975281425763, "alt_km": 23216.0104350003, "timestamp": "2025-12-18T10:51:26.069095+00:00", "meta": {"OBJECT_NAME": "GSAT0215 (GALILEO 19)", "OBJECT_ID": "2017-079A", "EPOCH": "2025-12-17T04:12:33.509376", "MEAN_MOTION": 1.70474116, "ECCENTRICITY": 0.00012477, "INCLINATION": 55.1286, "RA_OF_ASC_NODE": 226.5156, "ARG_OF_PERICENTER": 341.6592, "MEAN_ANOMALY": 18.4365, "EPHEMERIS_TYPE": 0, "CLASSIFICATION_TYPE": "U", "NORAD_CAT_ID": 43055, "ELEMENT_SET_NO": 999, "REV_AT_EPOCH": 4988, "BSTAR": 0, "MEAN_MOTION_DOT": 5.5e-07, "MEAN_MOTION_DDOT": 0}, "tle": {"line1": "1 43055U 17079A   25351.17538784  .00000055  00000+0  00000+0 0  9998", "line2": "2 43055  55.1286 226.5156 0001247 341.6592  18.4365  1.70474116 49884"}}, "geometry": {"type": "Point", "coordinates": [-84.29975281425763, 47.37498323573592]}}, {"type": "Feature", "properties": {"norad_id": 43056, "name": "GSAT0216 (GALILEO 20)", "group": "galileo", "lat": -48.00802285023921, "lon": 97.21279969216958, "alt_km": 23226.026852101862, "timestamp": "2025-12-18T10:51:26.069106+00:00", "meta": {"OBJECT_NAME": "GSAT0216 (GALILEO 20)", "OBJECT_ID": "2017-079B", "EPOCH": "2025-12-16T21:07:19.515072", "MEAN_MOTION": 1.70474167, "ECCENTRICITY": 0.00024195, "INCLINATION": 55.129, "RA_OF_ASC_NODE": 226.5236, "ARG_OF_PERICENTER": 322.2527, "MEAN_ANOMALY": 37.829, "EPHEMERIS_TYPE": 0, "CLASSIFICATION_TYPE": "U", "NORAD_CAT_ID": 43056, "ELEMENT_SET_NO": 999, "REV_AT_EPOCH": 4989, "BSTAR": 0, "MEAN_MOTION_DOT": 5.3e-07, "MEAN_MOTION_DDOT": 0}, "tle": {"line1": "1 43056U 17079B   25350.88008698  .00000053  00000+0  00000+0 0  9990", "line2": "2 43056  55.1290 226.5236 0002419 322.2527  37.8290  1.70474167 49893"}}, "geometry": {"type": "Point", "coordinates": [97.21279969216958, -48.00802285023921]}}, {"type": "Feature", "properties": {"norad_id": 43057, "name": "GSAT0217 (GALILEO 21)", "group": "galileo", "lat": 50.641195109134, "lon": -11.675317229201491, "alt_km": 23220.62382979416, "timestamp": "2025-12-18T10:51:26.069117+00:00", "meta": {"OBJECT_NAME": "GSAT0217 (GALILEO 21)", "OBJECT_ID": "2017-079C", "EPOCH": "2025-12-16T12:20:28.313376", "MEAN_MOTION": 1.70474073, "ECCENTRICITY": 0.00027918, "INCLINATION": 55.1271, "RA_OF_ASC_NODE": 226.5317, "ARG_OF_PERICENTER": 347.0782, "MEAN_ANOMALY": 13.0112, "EPHEMERIS_TYPE": 0, "CLASSIFICATION_TYPE": "U", "NORAD_CAT_ID": 43057, "ELEMENT_SET_NO": 999, "REV_AT_EPOCH": 4987, "BSTAR": 0, "MEAN_MOTION_DOT": 5e-07, "MEAN_MOTION_DDOT": 0}, "tle": {"line1": "1 43057U 17079C   25350.51421659  .00000050  00000+0  00000+0 0  9994", "line2": "2 43057  55.1271 226.5317 0002791 347.0782  13.0112  1.70474073 49877"}}, "geometry": {"type": "Point", "coordinates": [-11.675317229201491, 50.641195109134]}}]}